[
  {
    "id": "d55cf695-fc95-4a10-bc2b-3acf835c74bf",
    "name": "Raiffeisen Waren GmbH",
    "brand": "Raiffeisen",
    "street": "Maschweg",
    "house_number": "2",
    "post_code": 38477,
    "place": "Jembke",
    "lat": 52.49908,
    "lng": 10.76281,
    "isOpen": true
  },
  {
    "id": "720e0a99-fe07-4824-a734-ac40544f633f",
    "name": "Aral Tankstelle",
    "brand": "ARAL",
    "street": "Wolfsburger Straße",
    "house_number": "24",
    "post_code": 38554,
    "place": "Weyhausen",
    "lat": 52.462612,
    "lng": 10.718878,
    "isOpen": true
  },
  {
    "id": "a6ff27d8-4fa5-4d80-9724-b5aa87455535",
    "name": "Shell Wolfsburg Helmstedter Str. 40",
    "brand": "Shell",
    "street": "Helmstedter Str.",
    "house_number": "40",
    "post_code": 38448,
    "place": "Wolfsburg",
    "lat": 52.434719,
    "lng": 10.850562,
    "isOpen": true
  },
  {
    "id": "e1a15081-254a-9107-e040-0b0a3dfe563c",
    "name": "Wolfsburg, Grauhorststr. 10",
    "brand": "HEM",
    "street": "Grauhorststr.",
    "house_number": "10",
    "post_code": 38440,
    "place": "Wolfsburg",
    "lat": 52.423625,
    "lng": 10.753604,
    "isOpen": true
  },
  {
    "id": "fb48f03e-c16e-435d-a845-6e235612f88f",
    "name": "Shell Wolfsburg Heinrich-Nordhoff Str. 119-121",
    "brand": "Shell",
    "street": "Heinrich-Nordhoff Str.",
    "house_number": "119-121",
    "post_code": 38440,
    "place": "Wolfsburg",
    "lat": 52.426201,
    "lng": 10.768519,
    "isOpen": true
  },
  {
    "id": "014ad61d-37f1-4efc-9e3e-e54c3650ea77",
    "name": "Aral Tankstelle",
    "brand": "ARAL",
    "street": "Heinrich-Nordhoff-Straße",
    "house_number": "117",
    "post_code": 38440,
    "place": "Wolfsburg",
    "lat": 52.427197,
    "lng": 10.77158,
    "isOpen": true
  },
  {
    "id": "a7890dd5-3d45-4d37-823a-e68225308e10",
    "name": "Esso Tankstelle",
    "brand": "ESSO",
    "street": "BERLINER RING 10",
    "house_number": "",
    "post_code": 38440,
    "place": "WOLFSBURG",
    "lat": 52.42584,
    "lng": 10.797348,
    "isOpen": true
  },
  {
    "id": "005056ba-7cb6-1ed2-bceb-7a4d9fd46d26",
    "name": "star Tankstelle",
    "brand": "STAR",
    "street": "Berliner Ring",
    "house_number": "20",
    "post_code": 38440,
    "place": "Wolfsburg",
    "lat": 52.423382,
    "lng": 10.797877,
    "isOpen": true
  },
  {
    "id": "42f01e8b-ec07-4844-a39d-8b75a525d90b",
    "name": "Aral Tankstelle",
    "brand": "ARAL",
    "street": "Wolfsburger Straße",
    "house_number": "41",
    "post_code": 38448,
    "place": "Wolfsburg",
    "lat": 52.438274,
    "lng": 10.830318,
    "isOpen": true
  },
  {
    "id": "005056ba-7cb6-1ed2-bceb-79dff61a8d26",
    "name": "star Tankstelle",
    "brand": "STAR",
    "street": "Schulenburgallee",
    "house_number": "2",
    "post_code": 38448,
    "place": "Wolfsburg",
    "lat": 52.440433,
    "lng": 10.807963,
    "isOpen": true
  }
]
